0 FENGYUN 1C DEB
1 38717U 99025ETJ 13283.09170377  .00001397  00000-0  94828-3 0   436
2 38717 098.9603 225.1638 0075972 164.0747 261.2360 14.00368232152095
0 FENGYUN 1C DEB
1 38717U 99025ETJ 13290.08082470  .00001431  00000-0  97099-3 0   442
2 38717 098.9599 232.0035 0075488 144.3499 216.2667 14.00386613153076
0 FENGYUN 1C DEB
1 38717U 99025ETJ 13291.09257066  .00001710  00000-0  11534-2 0   459
2 38717 098.9577 232.9954 0076306 141.8081 276.6433 14.00394383153210
0 FENGYUN 1C DEB
1 38717U 99025ETJ 13293.09301395  .00001930  00000-0  12982-2 0   469
2 38717 098.9586 234.9586 0076181 136.3879 281.6166 14.00400236153492
0 FENGYUN 1C DEB
1 38717U 99025ETJ 13296.09401858  .00002017  00000-0  13547-2 0   473
2 38717 098.9583 237.8994 0076822 128.3489 290.7980 14.00412311153913
